[{"OBJECT_NAME":"HORS 3 (RS81S)","OBJECT_ID":"2024-199U","EPOCH":"2026-03-29T03:43:36.616224","MEAN_MOTION":15.49696363,"ECCENTRICITY":0.000637,"INCLINATION":97.3101,"RA_OF_ASC_NODE":322.6705,"ARG_OF_PERICENTER":199.7643,"MEAN_ANOMALY":160.3363,"EPHEMERIS_TYPE":0,"CLASSIFICATION_TYPE":"U","NORAD_CAT_ID":61753,"ELEMENT_SET_NO":999,"REV_AT_EPOCH":12514,"BSTAR":0.00077295,"MEAN_MOTION_DOT":0.00042965,"MEAN_MOTION_DDOT":0},{"OBJECT_NAME":"HORS 4 (RS82S)","OBJECT_ID":"2024-199V","EPOCH":"2026-03-29T04:27:47.519424","MEAN_MOTION":15.52816345,"ECCENTRICITY":0.0006148,"INCLINATION":97.3073,"RA_OF_ASC_NODE":323.4788,"ARG_OF_PERICENTER":193.7648,"MEAN_ANOMALY":166.3439,"EPHEMERIS_TYPE":0,"CLASSIFICATION_TYPE":"U","NORAD_CAT_ID":61754,"ELEMENT_SET_NO":999,"REV_AT_EPOCH":12520,"BSTAR":0.00088148,"MEAN_MOTION_DOT":0.00054836,"MEAN_MOTION_DDOT":0},{"OBJECT_NAME":"HORIZON (RS59S)","OBJECT_ID":"2024-199Y","EPOCH":"2026-03-29T05:03:12.585312","MEAN_MOTION":15.76472683,"ECCENTRICITY":0.000579,"INCLINATION":97.3023,"RA_OF_ASC_NODE":327.9672,"ARG_OF_PERICENTER":162.0033,"MEAN_ANOMALY":198.1439,"EPHEMERIS_TYPE":0,"CLASSIFICATION_TYPE":"U","NORAD_CAT_ID":61757,"ELEMENT_SET_NO":999,"REV_AT_EPOCH":12549,"BSTAR":0.0014894,"MEAN_MOTION_DOT":0.00241683,"MEAN_MOTION_DDOT":0},{"OBJECT_NAME":"ARCTICSAT 1 (RS74S)","OBJECT_ID":"2024-199AD","EPOCH":"2026-03-29T03:53:19.227840","MEAN_MOTION":15.70132578,"ECCENTRICITY":0.0005886,"INCLINATION":97.3046,"RA_OF_ASC_NODE":327.2838,"ARG_OF_PERICENTER":162.4189,"MEAN_ANOMALY":197.7279,"EPHEMERIS_TYPE":0,"CLASSIFICATION_TYPE":"U","NORAD_CAT_ID":61762,"ELEMENT_SET_NO":999,"REV_AT_EPOCH":12544,"BSTAR":0.001313,"MEAN_MOTION_DOT":0.00161194,"MEAN_MOTION_DDOT":0},{"OBJECT_NAME":"SIT-2086","OBJECT_ID":"2024-199AF","EPOCH":"2026-03-29T04:15:28.928160","MEAN_MOTION":15.48641956,"ECCENTRICITY":0.0006793,"INCLINATION":97.3091,"RA_OF_ASC_NODE":323.3963,"ARG_OF_PERICENTER":188.2286,"MEAN_ANOMALY":171.8854,"EPHEMERIS_TYPE":0,"CLASSIFICATION_TYPE":"U","NORAD_CAT_ID":61764,"ELEMENT_SET_NO":999,"REV_AT_EPOCH":12203,"BSTAR":0.0006184,"MEAN_MOTION_DOT":0.00033073,"MEAN_MOTION_DDOT":0},{"OBJECT_NAME":"HYPERVIEW 1G (RS66S)","OBJECT_ID":"2024-199AP","EPOCH":"2026-03-29T04:48:55.475712","MEAN_MOTION":15.60782793,"ECCENTRICITY":0.0007472,"INCLINATION":97.305,"RA_OF_ASC_NODE":324.8158,"ARG_OF_PERICENTER":193.2126,"MEAN_ANOMALY":166.8936,"EPHEMERIS_TYPE":0,"CLASSIFICATION_TYPE":"U","NORAD_CAT_ID":61772,"ELEMENT_SET_NO":999,"REV_AT_EPOCH":12214,"BSTAR":0.0012032,"MEAN_MOTION_DOT":0.00101212,"MEAN_MOTION_DDOT":0},{"OBJECT_NAME":"ALTAIR (RS65S)","OBJECT_ID":"2024-199AW","EPOCH":"2026-03-29T04:34:15.222144","MEAN_MOTION":15.35445133,"ECCENTRICITY":0.0011868,"INCLINATION":97.3156,"RA_OF_ASC_NODE":318.1045,"ARG_OF_PERICENTER":228.319,"MEAN_ANOMALY":131.7039,"EPHEMERIS_TYPE":0,"CLASSIFICATION_TYPE":"U","NORAD_CAT_ID":61779,"ELEMENT_SET_NO":999,"REV_AT_EPOCH":12483,"BSTAR":0.00040197,"MEAN_MOTION_DOT":0.00013802,"MEAN_MOTION_DDOT":0},{"OBJECT_NAME":"ASRTU-1 (AO-123)","OBJECT_ID":"2024-199AY","EPOCH":"2026-03-29T04:22:21.165024","MEAN_MOTION":15.34438249,"ECCENTRICITY":0.0012757,"INCLINATION":97.313,"RA_OF_ASC_NODE":317.5882,"ARG_OF_PERICENTER":231.1383,"MEAN_ANOMALY":128.8723,"EPHEMERIS_TYPE":0,"CLASSIFICATION_TYPE":"U","NORAD_CAT_ID":61781,"ELEMENT_SET_NO":999,"REV_AT_EPOCH":12165,"BSTAR":0.00036205,"MEAN_MOTION_DOT":0.00012033,"MEAN_MOTION_DDOT":0},{"OBJECT_NAME":"TUSUR GO (RS78S)","OBJECT_ID":"2024-199AZ","EPOCH":"2026-03-28T10:48:24.203232","MEAN_MOTION":15.77531145,"ECCENTRICITY":0.00058339,"INCLINATION":97.2973,"RA_OF_ASC_NODE":326.1912,"ARG_OF_PERICENTER":176.1622,"MEAN_ANOMALY":183.969,"EPHEMERIS_TYPE":0,"CLASSIFICATION_TYPE":"U","NORAD_CAT_ID":61782,"ELEMENT_SET_NO":999,"REV_AT_EPOCH":12217,"BSTAR":0.0013982788,"MEAN_MOTION_DOT":0.00237582,"MEAN_MOTION_DDOT":0},{"OBJECT_NAME":"SAMSAT-IONOSPHERE (RS75S)","OBJECT_ID":"2024-199BB","EPOCH":"2026-03-29T03:55:09.899328","MEAN_MOTION":15.51113471,"ECCENTRICITY":0.000914,"INCLINATION":97.3089,"RA_OF_ASC_NODE":322.5072,"ARG_OF_PERICENTER":205.7078,"MEAN_ANOMALY":154.3721,"EPHEMERIS_TYPE":0,"CLASSIFICATION_TYPE":"U","NORAD_CAT_ID":61784,"ELEMENT_SET_NO":999,"REV_AT_EPOCH":12513,"BSTAR":0.00087396,"MEAN_MOTION_DOT":0.00051182,"MEAN_MOTION_DDOT":0},{"OBJECT_NAME":"RTU MIREA 1 (RS51S)","OBJECT_ID":"2024-199BC","EPOCH":"2026-03-29T04:48:06.639840","MEAN_MOTION":15.53280302,"ECCENTRICITY":0.0009237,"INCLINATION":97.3085,"RA_OF_ASC_NODE":323.05,"ARG_OF_PERICENTER":202.7484,"MEAN_ANOMALY":157.3361,"EPHEMERIS_TYPE":0,"CLASSIFICATION_TYPE":"U","NORAD_CAT_ID":61785,"ELEMENT_SET_NO":999,"REV_AT_EPOCH":12202,"BSTAR":0.00098034,"MEAN_MOTION_DOT":0.00062141,"MEAN_MOTION_DDOT":0},{"OBJECT_NAME":"TEVEL2-4","OBJECT_ID":"2025-052D","EPOCH":"2026-03-28T10:45:39.178368","MEAN_MOTION":15.31690724,"ECCENTRICITY":0.00042842,"INCLINATION":97.3996,"RA_OF_ASC_NODE":343.8393,"ARG_OF_PERICENTER":59.984,"MEAN_ANOMALY":300.1826,"EPHEMERIS_TYPE":0,"CLASSIFICATION_TYPE":"U","NORAD_CAT_ID":63213,"ELEMENT_SET_NO":999,"REV_AT_EPOCH":5774,"BSTAR":0.00073709764,"MEAN_MOTION_DOT":0.00022525,"MEAN_MOTION_DDOT":0},{"OBJECT_NAME":"TEVEL2-5","OBJECT_ID":"2025-052E","EPOCH":"2026-03-28T15:45:54.108000","MEAN_MOTION":15.31569852,"ECCENTRICITY":0.0004195,"INCLINATION":97.3997,"RA_OF_ASC_NODE":344.0161,"ARG_OF_PERICENTER":59.1708,"MEAN_ANOMALY":300.9946,"EPHEMERIS_TYPE":0,"CLASSIFICATION_TYPE":"U","NORAD_CAT_ID":63214,"ELEMENT_SET_NO":999,"REV_AT_EPOCH":5777,"BSTAR":0.00075643,"MEAN_MOTION_DOT":0.00023032,"MEAN_MOTION_DDOT":0},{"OBJECT_NAME":"TEVEL2-6","OBJECT_ID":"2025-052F","EPOCH":"2026-03-29T04:33:26.432928","MEAN_MOTION":15.31560044,"ECCENTRICITY":0.0004274,"INCLINATION":97.3997,"RA_OF_ASC_NODE":344.5335,"ARG_OF_PERICENTER":57.8547,"MEAN_ANOMALY":302.3109,"EPHEMERIS_TYPE":0,"CLASSIFICATION_TYPE":"U","NORAD_CAT_ID":63215,"ELEMENT_SET_NO":999,"REV_AT_EPOCH":5785,"BSTAR":0.00090564,"MEAN_MOTION_DOT":0.00027598,"MEAN_MOTION_DDOT":0},{"OBJECT_NAME":"TEVEL2-1","OBJECT_ID":"2025-052H","EPOCH":"2026-03-29T04:38:47.821056","MEAN_MOTION":15.31119335,"ECCENTRICITY":0.0004613,"INCLINATION":97.3975,"RA_OF_ASC_NODE":344.2497,"ARG_OF_PERICENTER":67.102,"MEAN_ANOMALY":293.0707,"EPHEMERIS_TYPE":0,"CLASSIFICATION_TYPE":"U","NORAD_CAT_ID":63217,"ELEMENT_SET_NO":999,"REV_AT_EPOCH":5784,"BSTAR":0.00088738,"MEAN_MOTION_DOT":0.00026671,"MEAN_MOTION_DDOT":0},{"OBJECT_NAME":"TEVEL2-3","OBJECT_ID":"2025-052J","EPOCH":"2026-03-29T04:34:37.470144","MEAN_MOTION":15.31157889,"ECCENTRICITY":0.0004626,"INCLINATION":97.3977,"RA_OF_ASC_NODE":344.2602,"ARG_OF_PERICENTER":67.8686,"MEAN_ANOMALY":292.3046,"EPHEMERIS_TYPE":0,"CLASSIFICATION_TYPE":"U","NORAD_CAT_ID":63218,"ELEMENT_SET_NO":999,"REV_AT_EPOCH":5784,"BSTAR":0.00089914,"MEAN_MOTION_DOT":0.00027059,"MEAN_MOTION_DDOT":0}]
