HORS 3 (RS81S)          
1 61753U 24199U   26088.15528491  .00042965  00000+0  77295-3 0  9994
2 61753  97.3101 322.6705 0006370 199.7643 160.3363 15.49696363125142
HORS 4 (RS82S)          
1 61754U 24199V   26088.18596666  .00054836  00000+0  88148-3 0  9996
2 61754  97.3073 323.4788 0006148 193.7648 166.3439 15.52816345125208
HORIZON (RS59S)         
1 61757U 24199Y   26088.21056233  .00241683  00000+0  14894-2 0  9998
2 61757  97.3023 327.9672 0005790 162.0033 198.1439 15.76472683125499
ARCTICSAT 1 (RS74S)     
1 61762U 24199AD  26088.16202810  .00161194  00000+0  13130-2 0  9992
2 61762  97.3046 327.2838 0005886 162.4189 197.7279 15.70132578125441
SIT-2086                
1 61764U 24199AF  26088.17741815  .00033073  00000+0  61840-3 0  9994
2 61764  97.3091 323.3963 0006793 188.2286 171.8854 15.48641956122035
HYPERVIEW 1G (RS66S)    
1 61772U 24199AP  26088.20064208  .00101212  00000+0  12032-2 0  9990
2 61772  97.3050 324.8158 0007472 193.2126 166.8936 15.60782793122141
ALTAIR (RS65S)          
1 61779U 24199AW  26088.19045396  .00013802  00000+0  40197-3 0  9993
2 61779  97.3156 318.1045 0011868 228.3190 131.7039 15.35445133124830
ASRTU-1 (AO-123)        
1 61781U 24199AY  26088.18218941  .00012033  00000+0  36205-3 0  9993
2 61781  97.3130 317.5882 0012757 231.1383 128.8723 15.34438249121654
TUSUR GO (RS78S)        
1 61782U 24199AZ  26087.45028013  .00237582  00000+0  13983-2 0  9997
2 61782  97.2973 326.1912 0005833 176.1622 183.9690 15.77531145122179
SAMSAT-IONOSPHERE (RS7*)
1 61784U 24199BB  26088.16330902  .00051182  00000+0  87396-3 0  9991
2 61784  97.3089 322.5072 0009140 205.7078 154.3721 15.51113471125132
RTU MIREA 1 (RS51S)     
1 61785U 24199BC  26088.20007685  .00062141  00000+0  98034-3 0  9994
2 61785  97.3085 323.0500 0009237 202.7484 157.3361 15.53280302122024
TEVEL2-4                
1 63213U 25052D   26087.44837012  .00022525  00000+0  73710-3 0  9997
2 63213  97.3996 343.8393 0004284  59.9840 300.1826 15.31690724 57747
TEVEL2-5                
1 63214U 25052E   26087.65687625  .00023032  00000+0  75643-3 0  9995
2 63214  97.3997 344.0161 0004195  59.1708 300.9946 15.31569852 57772
TEVEL2-6                
1 63215U 25052F   26088.18988927  .00027598  00000+0  90564-3 0  9994
2 63215  97.3997 344.5335 0004274  57.8547 302.3109 15.31560044 57855
TEVEL2-1                
1 63217U 25052H   26088.19360904  .00026671  00000+0  88738-3 0  9997
2 63217  97.3975 344.2497 0004613  67.1020 293.0707 15.31119335 57848
TEVEL2-3                
1 63218U 25052J   26088.19071146  .00027059  00000+0  89914-3 0  9993
2 63218  97.3977 344.2602 0004626  67.8686 292.3046 15.31157889 57842
